[{"OBJECT_NAME":"STARLINK-3574","OBJECT_ID":"2022-022Y","EPOCH":"2026-03-09T05:07:07.872384","MEAN_MOTION":15.0884531,"ECCENTRICITY":0.00015533,"INCLINATION":53.2193,"RA_OF_ASC_NODE":11.2598,"ARG_OF_PERICENTER":100.2689,"MEAN_ANOMALY":259.8478,"EPHEMERIS_TYPE":0,"CLASSIFICATION_TYPE":"U","NORAD_CAT_ID":51874,"ELEMENT_SET_NO":999,"REV_AT_EPOCH":22303,"BSTAR":-8.6972372e-5,"MEAN_MOTION_DOT":-1.672e-5,"MEAN_MOTION_DDOT":0},{"OBJECT_NAME":"FENGYUN 1C DEB","OBJECT_ID":"1999-025DEQ","EPOCH":"2026-03-08T16:18:11.400768","MEAN_MOTION":15.03063896,"ECCENTRICITY":0.0041192,"INCLINATION":98.802,"RA_OF_ASC_NODE":149.1421,"ARG_OF_PERICENTER":81.4798,"MEAN_ANOMALY":279.1089,"EPHEMERIS_TYPE":0,"CLASSIFICATION_TYPE":"U","NORAD_CAT_ID":33655,"ELEMENT_SET_NO":999,"REV_AT_EPOCH":97846,"BSTAR":0.0032042236,"MEAN_MOTION_DOT":0.0004416,"MEAN_MOTION_DDOT":0}]
